0 FENGYUN 1C DEB
1 31768U 99025CFT 13282.55242193  .00003332  00000-0  13378-2 0  5381
2 31768 099.0333 026.2481 0063386 144.7132 272.6563 14.27796942329641
0 FENGYUN 1C DEB
1 31768U 99025CFT 13287.11972402  .00003470  00000-0  13917-2 0  5406
2 31768 099.0341 030.9692 0063272 131.7332 348.9161 14.27823644330292
0 FENGYUN 1C DEB
1 31768U 99025CFT 13289.15143758  .00004635  00000-0  18520-2 0  5416
2 31768 099.0347 033.0699 0063170 125.9748 352.2189 14.27841499330580
0 FENGYUN 1C DEB
1 31768U 99025CFT 13291.52305735  .00003948  00000-0  15801-2 0  5421
2 31768 099.0351 035.5221 0063038 119.2430 302.8377 14.27858873330922
0 FENGYUN 1C DEB
1 31768U 99025CFT 13293.55585772  .00004668  00000-0  18643-2 0  5435
2 31768 099.0349 037.6239 0062945 113.4534 312.0125 14.27874038331216
0 FENGYUN 1C DEB
1 31768U 99025CFT 13296.08983916  .00005217  00000-0  20803-2 0  5441
2 31768 099.0342 040.2439 0062867 106.1819 017.6331 14.27898329331574
